CCSDS_OMM_VERS = 2.0
CREATION_DATE  = 
ORIGINATOR     = 

OBJECT_NAME    = STARLINK-36039
OBJECT_ID      = 2025-270AA
CENTER_NAME    = EARTH
REF_FRAME      = TEME
TIME_SYSTEM    = UTC
MEAN_ELEMENT_THEORY = SGP/SGP4

EPOCH          = 2025-12-19T11:14:40.026048
MEAN_MOTION    = 15.40749078
ECCENTRICITY   = .0001559
INCLINATION    = 42.9988
RA_OF_ASC_NODE = 153.8506
ARG_OF_PERICENTER = 277.1774
MEAN_ANOMALY   = 82.8905

EPHEMERIS_TYPE = 0
CLASSIFICATION_TYPE = U
NORAD_CAT_ID   = 66612
ELEMENT_SET_NO = 999
REV_AT_EPOCH   = 538
BSTAR          = .12709E-2
MEAN_MOTION_DOT = .53244E-3
MEAN_MOTION_DDOT = 0

CCSDS_OMM_VERS = 2.0
CREATION_DATE  = 
ORIGINATOR     = 

OBJECT_NAME    = STARLINK-36037
OBJECT_ID      = 2025-270AB
CENTER_NAME    = EARTH
REF_FRAME      = TEME
TIME_SYSTEM    = UTC
MEAN_ELEMENT_THEORY = SGP/SGP4

EPOCH          = 2025-12-19T11:08:12.783840
MEAN_MOTION    = 15.40728789
ECCENTRICITY   = .0001195
INCLINATION    = 42.9985
RA_OF_ASC_NODE = 153.8159
ARG_OF_PERICENTER = 252.8559
MEAN_ANOMALY   = 107.2167

EPHEMERIS_TYPE = 0
CLASSIFICATION_TYPE = U
NORAD_CAT_ID   = 66613
ELEMENT_SET_NO = 999
REV_AT_EPOCH   = 538
BSTAR          = .80999E-3
MEAN_MOTION_DOT = .33714E-3
MEAN_MOTION_DDOT = 0

CCSDS_OMM_VERS = 2.0
CREATION_DATE  = 
ORIGINATOR     = 

OBJECT_NAME    = STARLINK-36040
OBJECT_ID      = 2025-270AC
CENTER_NAME    = EARTH
REF_FRAME      = TEME
TIME_SYSTEM    = UTC
MEAN_ELEMENT_THEORY = SGP/SGP4

EPOCH          = 2025-12-19T20:00:01.999008
MEAN_MOTION    = 15.40657951
ECCENTRICITY   = .0001872
INCLINATION    = 43.0000
RA_OF_ASC_NODE = 151.4186
ARG_OF_PERICENTER = 279.6124
MEAN_ANOMALY   = 83.2289

EPHEMERIS_TYPE = 0
CLASSIFICATION_TYPE = U
NORAD_CAT_ID   = 66614
ELEMENT_SET_NO = 999
REV_AT_EPOCH   = 538
BSTAR          = .13572E-2
MEAN_MOTION_DOT = .56735E-3
MEAN_MOTION_DDOT = 0

CCSDS_OMM_VERS = 2.0
CREATION_DATE  = 
ORIGINATOR     = 

OBJECT_NAME    = STARLINK-35988
OBJECT_ID      = 2025-270AD
CENTER_NAME    = EARTH
REF_FRAME      = TEME
TIME_SYSTEM    = UTC
MEAN_ELEMENT_THEORY = SGP/SGP4

EPOCH          = 2025-12-19T18:45:18.192384
MEAN_MOTION    = 15.40740472
ECCENTRICITY   = .0001379
INCLINATION    = 42.9991
RA_OF_ASC_NODE = 151.8970
ARG_OF_PERICENTER = 259.7839
MEAN_ANOMALY   = 100.2862

EPHEMERIS_TYPE = 0
CLASSIFICATION_TYPE = U
NORAD_CAT_ID   = 66615
ELEMENT_SET_NO = 999
REV_AT_EPOCH   = 527
BSTAR          = .69381E-3
MEAN_MOTION_DOT = .28827E-3
MEAN_MOTION_DDOT = 0

CCSDS_OMM_VERS = 2.0
CREATION_DATE  = 
ORIGINATOR     = 

OBJECT_NAME    = STARLINK-35391
OBJECT_ID      = 2025-270AE
CENTER_NAME    = EARTH
REF_FRAME      = TEME
TIME_SYSTEM    = UTC
MEAN_ELEMENT_THEORY = SGP/SGP4

EPOCH          = 2025-12-19T20:00:01.999008
MEAN_MOTION    = 15.40661614
ECCENTRICITY   = .0001389
INCLINATION    = 43.0001
RA_OF_ASC_NODE = 151.3586
ARG_OF_PERICENTER = 280.1292
MEAN_ANOMALY   = 107.6014

EPHEMERIS_TYPE = 0
CLASSIFICATION_TYPE = U
NORAD_CAT_ID   = 66616
ELEMENT_SET_NO = 999
REV_AT_EPOCH   = 564
BSTAR          = .13811E-2
MEAN_MOTION_DOT = .57753E-3
MEAN_MOTION_DDOT = 0

CCSDS_OMM_VERS = 2.0
CREATION_DATE  = 
ORIGINATOR     = 

OBJECT_NAME    = STARLINK-35940
OBJECT_ID      = 2025-271A
CENTER_NAME    = EARTH
REF_FRAME      = TEME
TIME_SYSTEM    = UTC
MEAN_ELEMENT_THEORY = SGP/SGP4

EPOCH          = 2025-12-19T00:00:02.000160
MEAN_MOTION    = 15.39596888
ECCENTRICITY   = .00013918
INCLINATION    = 53.1586
RA_OF_ASC_NODE = 157.5858
ARG_OF_PERICENTER = 105.8265
MEAN_ANOMALY   = 216.5412

EPHEMERIS_TYPE = 0
CLASSIFICATION_TYPE = U
NORAD_CAT_ID   = 66617
ELEMENT_SET_NO = 999
REV_AT_EPOCH   = 524
BSTAR          = .83644886E-3
MEAN_MOTION_DOT = .33178E-3
MEAN_MOTION_DDOT = 0

CCSDS_OMM_VERS = 2.0
CREATION_DATE  = 
ORIGINATOR     = 

OBJECT_NAME    = STARLINK-35970
OBJECT_ID      = 2025-271B
CENTER_NAME    = EARTH
REF_FRAME      = TEME
TIME_SYSTEM    = UTC
MEAN_ELEMENT_THEORY = SGP/SGP4

EPOCH          = 2025-12-18T21:46:16.468320
MEAN_MOTION    = 15.49335101
ECCENTRICITY   = .00007172
INCLINATION    = 53.1590
RA_OF_ASC_NODE = 157.6323
ARG_OF_PERICENTER = 82.1987
MEAN_ANOMALY   = 277.9103

EPHEMERIS_TYPE = 0
CLASSIFICATION_TYPE = U
NORAD_CAT_ID   = 66618
ELEMENT_SET_NO = 999
REV_AT_EPOCH   = 516
BSTAR          = .91874022E-3
MEAN_MOTION_DOT = .5103E-3
MEAN_MOTION_DDOT = 0

CCSDS_OMM_VERS = 2.0
CREATION_DATE  = 
ORIGINATOR     = 

OBJECT_NAME    = STARLINK-35951
OBJECT_ID      = 2025-271C
CENTER_NAME    = EARTH
REF_FRAME      = TEME
TIME_SYSTEM    = UTC
MEAN_ELEMENT_THEORY = SGP/SGP4

EPOCH          = 2025-12-19T04:09:37.126368
MEAN_MOTION    = 15.49333473
ECCENTRICITY   = .00009562
INCLINATION    = 53.1599
RA_OF_ASC_NODE = 156.4548
ARG_OF_PERICENTER = 94.0612
MEAN_ANOMALY   = 266.0506

EPHEMERIS_TYPE = 0
CLASSIFICATION_TYPE = U
NORAD_CAT_ID   = 66619
ELEMENT_SET_NO = 999
REV_AT_EPOCH   = 520
BSTAR          = .56183795E-3
MEAN_MOTION_DOT = .30949E-3
MEAN_MOTION_DDOT = 0

CCSDS_OMM_VERS = 2.0
CREATION_DATE  = 
ORIGINATOR     = 

OBJECT_NAME    = STARLINK-35936
OBJECT_ID      = 2025-271D
CENTER_NAME    = EARTH
REF_FRAME      = TEME
TIME_SYSTEM    = UTC
MEAN_ELEMENT_THEORY = SGP/SGP4

EPOCH          = 2025-12-18T20:26:38.659776
MEAN_MOTION    = 15.49341209
ECCENTRICITY   = .0001202
INCLINATION    = 53.1598
RA_OF_ASC_NODE = 158.0059
ARG_OF_PERICENTER = 74.9181
MEAN_ANOMALY   = 285.1961

EPHEMERIS_TYPE = 0
CLASSIFICATION_TYPE = U
NORAD_CAT_ID   = 66620
ELEMENT_SET_NO = 999
REV_AT_EPOCH   = 515
BSTAR          = .62165334E-3
MEAN_MOTION_DOT = .34317E-3
MEAN_MOTION_DDOT = 0

CCSDS_OMM_VERS = 2.0
CREATION_DATE  = 
ORIGINATOR     = 

OBJECT_NAME    = STARLINK-35847
OBJECT_ID      = 2025-271E
CENTER_NAME    = EARTH
REF_FRAME      = TEME
TIME_SYSTEM    = UTC
MEAN_ELEMENT_THEORY = SGP/SGP4

EPOCH          = 2025-12-19T07:02:43.202112
MEAN_MOTION    = 15.49312278
ECCENTRICITY   = .000134
INCLINATION    = 53.1591
RA_OF_ASC_NODE = 155.7767
ARG_OF_PERICENTER = 58.2700
MEAN_ANOMALY   = 301.8440

EPHEMERIS_TYPE = 0
CLASSIFICATION_TYPE = U
NORAD_CAT_ID   = 66621
ELEMENT_SET_NO = 999
REV_AT_EPOCH   = 522
BSTAR          = .10412E-2
MEAN_MOTION_DOT = .57898E-3
MEAN_MOTION_DDOT = 0

CCSDS_OMM_VERS = 2.0
CREATION_DATE  = 
ORIGINATOR     = 

OBJECT_NAME    = STARLINK-35950
OBJECT_ID      = 2025-271F
CENTER_NAME    = EARTH
REF_FRAME      = TEME
TIME_SYSTEM    = UTC
MEAN_ELEMENT_THEORY = SGP/SGP4

EPOCH          = 2025-12-19T20:00:01.999008
MEAN_MOTION    = 15.39594072
ECCENTRICITY   = .0001198
INCLINATION    = 53.1599
RA_OF_ASC_NODE = 153.4539
ARG_OF_PERICENTER = 83.3869
MEAN_ANOMALY   = 283.4409

EPHEMERIS_TYPE = 0
CLASSIFICATION_TYPE = U
NORAD_CAT_ID   = 66622
ELEMENT_SET_NO = 999
REV_AT_EPOCH   = 538
BSTAR          = .10636E-2
MEAN_MOTION_DOT = .42346E-3
MEAN_MOTION_DDOT = 0

CCSDS_OMM_VERS = 2.0
CREATION_DATE  = 
ORIGINATOR     = 

OBJECT_NAME    = STARLINK-35920
OBJECT_ID      = 2025-271G
CENTER_NAME    = EARTH
REF_FRAME      = TEME
TIME_SYSTEM    = UTC
MEAN_ELEMENT_THEORY = SGP/SGP4

EPOCH          = 2025-12-19T20:00:01.999008
MEAN_MOTION    = 15.39588577
ECCENTRICITY   = .0001104
INCLINATION    = 53.1605
RA_OF_ASC_NODE = 153.5544
ARG_OF_PERICENTER = 85.9143
MEAN_ANOMALY   = 229.4047

EPHEMERIS_TYPE = 0
CLASSIFICATION_TYPE = U
NORAD_CAT_ID   = 66623
ELEMENT_SET_NO = 999
REV_AT_EPOCH   = 538
BSTAR          = .11171E-2
MEAN_MOTION_DOT = .445E-3
MEAN_MOTION_DDOT = 0

