STARLINK-36039          
1 66612U 25270AA  25353.46851882  .00053244  00000+0  12709-2 0  9995
2 66612  42.9988 153.8506 0001559 277.1774  82.8905 15.40749078  5389
STARLINK-36037          
1 66613U 25270AB  25353.46403685  .00033714  00000+0  80999-3 0  9997
2 66613  42.9985 153.8159 0001195 252.8559 107.2167 15.40728789  5386
STARLINK-36040          
1 66614U 25270AC  25353.83335647  .00056735  00000+0  13572-2 0  9991
2 66614  43.0000 151.4186 0001872 279.6124  83.2289 15.40657951  5388
STARLINK-35988          
1 66615U 25270AD  25353.78146056  .00028827  00000+0  69381-3 0  9991
2 66615  42.9991 151.8970 0001379 259.7839 100.2862 15.40740472  5271
STARLINK-35391          
1 66616U 25270AE  25353.83335647  .00057753  00000+0  13811-2 0  9990
2 66616  43.0001 151.3586 0001389 280.1292 107.6014 15.40661614  5647
STARLINK-35940          
1 66617U 25271A   25353.00002315  .00033178  00000+0  83645-3 0  9992
2 66617  53.1586 157.5858 0001391 105.8265 216.5412 15.39596888  5240
STARLINK-35970          
1 66618U 25271B   25352.90713505  .00051030  00000+0  91874-3 0  9991
2 66618  53.1590 157.6323 0000717  82.1987 277.9103 15.49335101  5162
STARLINK-35951          
1 66619U 25271C   25353.17334637  .00030949  00000+0  56184-3 0  9998
2 66619  53.1599 156.4548 0000956  94.0612 266.0506 15.49333473  5201
STARLINK-35936          
1 66620U 25271D   25352.85183634  .00034317  00000+0  62165-3 0  9992
2 66620  53.1598 158.0059 0001202  74.9181 285.1961 15.49341209  5157
STARLINK-35847          
1 66621U 25271E   25353.29355558  .00057898  00000+0  10412-2 0  9994
2 66621  53.1591 155.7767 0001340  58.2700 301.8440 15.49312278  5226
STARLINK-35950          
1 66622U 25271F   25353.83335647  .00042346  00000+0  10636-2 0  9992
2 66622  53.1599 153.4539 0001198  83.3869 283.4409 15.39594072  5383
STARLINK-35920          
1 66623U 25271G   25353.83335647  .00044500  00000+0  11171-2 0  9992
2 66623  53.1605 153.5544 0001104  85.9143 229.4047 15.39588577  5380
